{
  "type": "FeatureCollection",
  "features": [
    {
      "type": "Feature",
      "properties": {
        "norad_id": 55973,
        "name": "TIANMU-1 03",
        "group": "weather",
        "lat": 63.271799797563,
        "lon": -21.85513101729966,
        "alt_km": 435.59014376257073,
        "timestamp": "2025-12-06T11:28:10.672449+00:00",
        "meta_object_name": "TIANMU-1 03",
        "meta_object_id": "2023-039A",
        "meta_epoch": "2025-12-05T22:29:57.068448",
        "meta_mean_motion": 15.40625886,
        "meta_eccentricity": 0.00045139,
        "meta_inclination": 97.5107,
        "meta_ra_of_asc_node": 142.4007,
        "meta_arg_of_pericenter": 80.6785,
        "meta_mean_anomaly": 279.4971,
        "meta_ephemeris_type": 0,
        "meta_classification_type": "U",
        "meta_norad_cat_id": 55973,
        "meta_element_set_no": 999,
        "meta_rev_at_epoch": 15101,
        "meta_bstar": 0.00054505357,
        "meta_mean_motion_dot": 0.00022155,
        "meta_mean_motion_ddot": 0,
        "tle_line1": "1 55973U 23039A   25339.93746607  .00022155  00000+0  54505-3 0  9996",
        "tle_line2": "2 55973  97.5107 142.4007 0004513  80.6785 279.4971 15.40625886151017"
      },
      "geometry": {
        "type": "Point",
        "coordinates": [
          -21.85513101729966,
          63.271799797563
        ]
      }
    },
    {
      "type": "Feature",
      "properties": {
        "norad_id": 55974,
        "name": "TIANMU-1 04",
        "group": "weather",
        "lat": -41.77080422428863,
        "lon": -44.61193302780921,
        "alt_km": 452.88542303486975,
        "timestamp": "2025-12-06T11:28:10.672459+00:00",
        "meta_object_name": "TIANMU-1 04",
        "meta_object_id": "2023-039B",
        "meta_epoch": "2025-12-05T22:02:28.388832",
        "meta_mean_motion": 15.40956895,
        "meta_eccentricity": 0.00052266,
        "meta_inclination": 97.5039,
        "meta_ra_of_asc_node": 141.575,
        "meta_arg_of_pericenter": 76.7656,
        "meta_mean_anomaly": 283.4173,
        "meta_ephemeris_type": 0,
        "meta_classification_type": "U",
        "meta_norad_cat_id": 55974,
        "meta_element_set_no": 999,
        "meta_rev_at_epoch": 15101,
        "meta_bstar": 0.00054013266,
        "meta_mean_motion_dot": 0.00022199,
        "meta_mean_motion_ddot": 0,
        "tle_line1": "1 55974U 23039B   25339.91838413  .00022199  00000+0  54013-3 0  9994",
        "tle_line2": "2 55974  97.5039 141.5750 0005226  76.7656 283.4173 15.40956895151018"
      },
      "geometry": {
        "type": "Point",
        "coordinates": [
          -44.61193302780921,
          -41.77080422428863
        ]
      }
    },
    {
      "type": "Feature",
      "properties": {
        "norad_id": 55975,
        "name": "TIANMU-1 05",
        "group": "weather",
        "lat": -79.39005097479611,
        "lon": -82.11683878774001,
        "alt_km": 454.56970762591027,
        "timestamp": "2025-12-06T11:28:10.672472+00:00",
        "meta_object_name": "TIANMU-1 05",
        "meta_object_id": "2023-039C",
        "meta_epoch": "2025-12-05T23:25:19.071552",
        "meta_mean_motion": 15.40586288,
        "meta_eccentricity": 0.00043625,
        "meta_inclination": 97.5086,
        "meta_ra_of_asc_node": 142.1261,
        "meta_arg_of_pericenter": 97.6491,
        "meta_mean_anomaly": 262.5251,
        "meta_ephemeris_type": 0,
        "meta_classification_type": "U",
        "meta_norad_cat_id": 55975,
        "meta_element_set_no": 999,
        "meta_rev_at_epoch": 15100,
        "meta_bstar": 0.00053152153,
        "meta_mean_motion_dot": 0.00021573,
        "meta_mean_motion_ddot": 0,
        "tle_line1": "1 55975U 23039C   25339.97591518  .00021573  00000+0  53152-3 0  9991",
        "tle_line2": "2 55975  97.5086 142.1261 0004362  97.6491 262.5251 15.40586288151003"
      },
      "geometry": {
        "type": "Point",
        "coordinates": [
          -82.11683878774001,
          -79.39005097479611
        ]
      }
    },
    {
      "type": "Feature",
      "properties": {
        "norad_id": 55976,
        "name": "TIANMU-1 06",
        "group": "weather",
        "lat": -28.736053042205118,
        "lon": -41.04631978379628,
        "alt_km": 450.51101550758085,
        "timestamp": "2025-12-06T11:28:10.672483+00:00",
        "meta_object_name": "TIANMU-1 06",
        "meta_object_id": "2023-039D",
        "meta_epoch": "2025-12-05T22:05:56.279328",
        "meta_mean_motion": 15.41009777,
        "meta_eccentricity": 0.0004707,
        "meta_inclination": 97.5096,
        "meta_ra_of_asc_node": 142.529,
        "meta_arg_of_pericenter": 93.2886,
        "meta_mean_anomaly": 266.8899,
        "meta_ephemeris_type": 0,
        "meta_classification_type": "U",
        "meta_norad_cat_id": 55976,
        "meta_element_set_no": 999,
        "meta_rev_at_epoch": 15101,
        "meta_bstar": 0.00053961519,
        "meta_mean_motion_dot": 0.00022214,
        "meta_mean_motion_ddot": 0,
        "tle_line1": "1 55976U 23039D   25339.92079027  .00022214  00000+0  53962-3 0  9995",
        "tle_line2": "2 55976  97.5096 142.5290 0004707  93.2886 266.8899 15.41009777151014"
      },
      "geometry": {
        "type": "Point",
        "coordinates": [
          -41.04631978379628,
          -28.736053042205118
        ]
      }
    },
    {
      "type": "Feature",
      "properties": {
        "norad_id": 56232,
        "name": "FENGYUN 3G",
        "group": "weather",
        "lat": -27.014210862496093,
        "lon": -125.59889451690228,
        "alt_km": 416.64135516824535,
        "timestamp": "2025-12-06T11:28:10.672493+00:00",
        "meta_object_name": "FENGYUN 3G",
        "meta_object_id": "2023-055A",
        "meta_epoch": "2025-12-05T23:16:21.940032",
        "meta_mean_motion": 15.5304505,
        "meta_eccentricity": 0.00092166,
        "meta_inclination": 49.9948,
        "meta_ra_of_asc_node": 262.3755,
        "meta_arg_of_pericenter": 116.1337,
        "meta_mean_anomaly": 244.058,
        "meta_ephemeris_type": 0,
        "meta_classification_type": "U",
        "meta_norad_cat_id": 56232,
        "meta_element_set_no": 999,
        "meta_rev_at_epoch": 14997,
        "meta_bstar": 0.00068773263,
        "meta_mean_motion_dot": 0.00043672,
        "meta_mean_motion_ddot": 0,
        "tle_line1": "1 56232U 23055A   25339.96969838  .00043672  00000+0  68773-3 0  9998",
        "tle_line2": "2 56232  49.9948 262.3755 0009216 116.1337 244.0580 15.53045050149974"
      },
      "geometry": {
        "type": "Point",
        "coordinates": [
          -125.59889451690228,
          -27.014210862496093
        ]
      }
    },
    {
      "type": "Feature",
      "properties": {
        "norad_id": 57166,
        "name": "METEOR-M2 3",
        "group": "weather",
        "lat": -24.013238648542856,
        "lon": -149.75712847405697,
        "alt_km": 820.3083474336827,
        "timestamp": "2025-12-06T11:28:10.672503+00:00",
        "meta_object_name": "METEOR-M2 3",
        "meta_object_id": "2023-091A",
        "meta_epoch": "2025-12-05T22:42:34.429248",
        "meta_mean_motion": 14.24024829,
        "meta_eccentricity": 0.00042775,
        "meta_inclination": 98.6388,
        "meta_ra_of_asc_node": 33.604,
        "meta_arg_of_pericenter": 27.3215,
        "meta_mean_anomaly": 332.8188,
        "meta_ephemeris_type": 0,
        "meta_classification_type": "U",
        "meta_norad_cat_id": 57166,
        "meta_element_set_no": 999,
        "meta_rev_at_epoch": 12701,
        "meta_bstar": 5.1404185e-05,
        "meta_mean_motion_dot": 7.5e-07,
        "meta_mean_motion_ddot": 0,
        "tle_line1": "1 57166U 23091A   25339.94623182  .00000075  00000+0  51404-4 0  9996",
        "tle_line2": "2 57166  98.6388  33.6040 0004277  27.3215 332.8188 14.24024829127015"
      },
      "geometry": {
        "type": "Point",
        "coordinates": [
          -149.75712847405697,
          -24.013238648542856
        ]
      }
    },
    {
      "type": "Feature",
      "properties": {
        "norad_id": 57399,
        "name": "TIANMU-1 07",
        "group": "weather",
        "lat": -31.23680000878525,
        "lon": -153.98530488931343,
        "alt_km": 489.7253687097982,
        "timestamp": "2025-12-06T11:28:10.672513+00:00",
        "meta_object_name": "TIANMU-1 07",
        "meta_object_id": "2023-101A",
        "meta_epoch": "2025-12-05T21:58:24.757248",
        "meta_mean_motion": 15.27922157,
        "meta_eccentricity": 0.00056237,
        "meta_inclination": 97.2884,
        "meta_ra_of_asc_node": 29.9168,
        "meta_arg_of_pericenter": 98.6284,
        "meta_mean_anomaly": 261.5593,
        "meta_ephemeris_type": 0,
        "meta_classification_type": "U",
        "meta_norad_cat_id": 57399,
        "meta_element_set_no": 999,
        "meta_rev_at_epoch": 13211,
        "meta_bstar": 0.00041270113,
        "meta_mean_motion_dot": 0.00011184,
        "meta_mean_motion_ddot": 0,
        "tle_line1": "1 57399U 23101A   25339.91556432  .00011184  00000+0  41270-3 0  9998",
        "tle_line2": "2 57399  97.2884  29.9168 0005623  98.6284 261.5593 15.27922157132111"
      },
      "geometry": {
        "type": "Point",
        "coordinates": [
          -153.98530488931343,
          -31.23680000878525
        ]
      }
    }
  ]
}